[
  {
    "COMMENT": "GENERATED VIA SPACETRACK.ORG API",
    "ORIGINATOR": "18 SPCS",
    "NORAD_CAT_ID": "36508",
    "OBJECT_NAME": "CRYOSAT 2",
    "OBJECT_TYPE": "PAYLOAD",
    "CLASSIFICATION_TYPE": "U",
    "INTLDES": "10013A",
    "EPOCH": "2023-06-19 11:00:50",
    "EPOCH_MICROSECONDS": "697504",
    "MEAN_MOTION": "14.51906512",
    "ECCENTRICITY": "0.000629",
    "INCLINATION": "92.0194",
    "RA_OF_ASC_NODE": "12.9461",
    "ARG_OF_PERICENTER": "83.9953",
    "MEAN_ANOMALY": "276.1971",
    "EPHEMERIS_TYPE": "0",
    "ELEMENT_SET_NO": "999",
    "REV_AT_EPOCH": "69942",
    "BSTAR": "0.000056878",
    "MEAN_MOTION_DOT": "0.00000232",
    "MEAN_MOTION_DDOT": "0",
    "FILE": "3937295",
    "TLE_LINE0": "0 CRYOSAT 2",
    "TLE_LINE1": "1 36508U 10013A   23170.45892011  .00000232  00000-0  56878-4 0  9995",
    "TLE_LINE2": "2 36508  92.0194  12.9461 0006290  83.9953 276.1971 14.51906512699423",
    "OBJECT_ID": "2010-013A",
    "OBJECT_NUMBER": "36508",
    "SEMIMAJOR_AXIS": "7097.565",
    "PERIOD": "99.180",
    "APOGEE": "723.895",
    "PERIGEE": "714.966",
    "DECAYED": "0"
  },
  {
    "COMMENT": "GENERATED VIA SPACETRACK.ORG API",
    "ORIGINATOR": "18 SPCS",
    "NORAD_CAT_ID": "36508",
    "OBJECT_NAME": "CRYOSAT 2",
    "OBJECT_TYPE": "PAYLOAD",
    "CLASSIFICATION_TYPE": "U",
    "INTLDES": "10013A",
    "EPOCH": "2023-06-19 12:40:05",
    "EPOCH_MICROSECONDS": "369952",
    "MEAN_MOTION": "14.51906546",
    "ECCENTRICITY": "0.0006288",
    "INCLINATION": "92.0194",
    "RA_OF_ASC_NODE": "12.9627",
    "ARG_OF_PERICENTER": "83.8578",
    "MEAN_ANOMALY": "276.3345",
    "EPHEMERIS_TYPE": "0",
    "ELEMENT_SET_NO": "999",
    "REV_AT_EPOCH": "69939",
    "BSTAR": "0.00005616",
    "MEAN_MOTION_DOT": "0.00000229",
    "MEAN_MOTION_DDOT": "0",
    "FILE": "3937338",
    "TLE_LINE0": "0 CRYOSAT 2",
    "TLE_LINE1": "1 36508U 10013A   23170.52783993  .00000229  00000-0  56160-4 0  9991",
    "TLE_LINE2": "2 36508  92.0194  12.9627 0006288  83.8578 276.3345 14.51906546699396",
    "OBJECT_ID": "2010-013A",
    "OBJECT_NUMBER": "36508",
    "SEMIMAJOR_AXIS": "7097.565",
    "PERIOD": "99.180",
    "APOGEE": "723.893",
    "PERIGEE": "714.967",
    "DECAYED": "0"
  },
  {
    "COMMENT": "GENERATED VIA SPACETRACK.ORG API",
    "ORIGINATOR": "18 SPCS",
    "NORAD_CAT_ID": "36508",
    "OBJECT_NAME": "CRYOSAT 2",
    "OBJECT_TYPE": "PAYLOAD",
    "CLASSIFICATION_TYPE": "U",
    "INTLDES": "10013A",
    "EPOCH": "2023-06-19 20:56:18",
    "EPOCH_MICROSECONDS": "731328",
    "MEAN_MOTION": "14.51906687",
    "ECCENTRICITY": "0.0006285",
    "INCLINATION": "92.0194",
    "RA_OF_ASC_NODE": "13.0457",
    "ARG_OF_PERICENTER": "83.1526",
    "MEAN_ANOMALY": "277.0396",
    "EPHEMERIS_TYPE": "0",
    "ELEMENT_SET_NO": "999",
    "REV_AT_EPOCH": "69944",
    "BSTAR": "0.000053067",
    "MEAN_MOTION_DOT": "0.00000217",
    "MEAN_MOTION_DDOT": "0",
    "FILE": "3937509",
    "TLE_LINE0": "0 CRYOSAT 2",
    "TLE_LINE1": "1 36508U 10013A   23170.87243902  .00000217  00000-0  53067-4 0  9990",
    "TLE_LINE2": "2 36508  92.0194  13.0457 0006285  83.1526 277.0396 14.51906687699448",
    "OBJECT_ID": "2010-013A",
    "OBJECT_NUMBER": "36508",
    "SEMIMAJOR_AXIS": "7097.565",
    "PERIOD": "99.180",
    "APOGEE": "723.891",
    "PERIGEE": "714.969",
    "DECAYED": "0"
  },
  {
    "COMMENT": "GENERATED VIA SPACETRACK.ORG API",
    "ORIGINATOR": "18 SPCS",
    "NORAD_CAT_ID": "36508",
    "OBJECT_NAME": "CRYOSAT 2",
    "OBJECT_TYPE": "PAYLOAD",
    "CLASSIFICATION_TYPE": "U",
    "INTLDES": "10013A",
    "EPOCH": "2023-06-20 13:28:45",
    "EPOCH_MICROSECONDS": "444576",
    "MEAN_MOTION": "14.51907047",
    "ECCENTRICITY": "0.0006267",
    "INCLINATION": "92.0193",
    "RA_OF_ASC_NODE": "13.2118",
    "ARG_OF_PERICENTER": "81.7122",
    "MEAN_ANOMALY": "278.4796",
    "EPHEMERIS_TYPE": "0",
    "ELEMENT_SET_NO": "999",
    "REV_AT_EPOCH": "69954",
    "BSTAR": "0.000052442",
    "MEAN_MOTION_DOT": "0.00000214",
    "MEAN_MOTION_DDOT": "0",
    "FILE": "3938135",
    "TLE_LINE0": "0 CRYOSAT 2",
    "TLE_LINE1": "1 36508U 10013A   23171.56163709  .00000214  00000-0  52442-4 0  9996",
    "TLE_LINE2": "2 36508  92.0193  13.2118 0006267  81.7122 278.4796 14.51907047699540",
    "OBJECT_ID": "2010-013A",
    "OBJECT_NUMBER": "36508",
    "SEMIMAJOR_AXIS": "7097.564",
    "PERIOD": "99.180",
    "APOGEE": "723.877",
    "PERIGEE": "714.981",
    "DECAYED": "0"
  },
  {
    "COMMENT": "GENERATED VIA SPACETRACK.ORG API",
    "ORIGINATOR": "18 SPCS",
    "NORAD_CAT_ID": "36508",
    "OBJECT_NAME": "CRYOSAT 2",
    "OBJECT_TYPE": "PAYLOAD",
    "CLASSIFICATION_TYPE": "U",
    "INTLDES": "10013A",
    "EPOCH": "2023-06-20 18:26:29",
    "EPOCH_MICROSECONDS": "454144",
    "MEAN_MOTION": "14.51907156",
    "ECCENTRICITY": "0.0006264",
    "INCLINATION": "92.0193",
    "RA_OF_ASC_NODE": "13.2617",
    "ARG_OF_PERICENTER": "81.3175",
    "MEAN_ANOMALY": "278.8741",
    "EPHEMERIS_TYPE": "0",
    "ELEMENT_SET_NO": "999",
    "REV_AT_EPOCH": "69961",
    "BSTAR": "0.000052117",
    "MEAN_MOTION_DOT": "0.00000213",
    "MEAN_MOTION_DDOT": "0",
    "FILE": "3938504",
    "TLE_LINE0": "0 CRYOSAT 2",
    "TLE_LINE1": "1 36508U 10013A   23171.76839646  .00000213  00000-0  52117-4 0  9996",
    "TLE_LINE2": "2 36508  92.0193  13.2617 0006264  81.3175 278.8741 14.51907156699618",
    "OBJECT_ID": "2010-013A",
    "OBJECT_NUMBER": "36508",
    "SEMIMAJOR_AXIS": "7097.563",
    "PERIOD": "99.180",
    "APOGEE": "723.874",
    "PERIGEE": "714.982",
    "DECAYED": "0"
  },
  {
    "COMMENT": "GENERATED VIA SPACETRACK.ORG API",
    "ORIGINATOR": "18 SPCS",
    "NORAD_CAT_ID": "36508",
    "OBJECT_NAME": "CRYOSAT 2",
    "OBJECT_TYPE": "PAYLOAD",
    "CLASSIFICATION_TYPE": "U",
    "INTLDES": "10013A",
    "EPOCH": "2023-06-20 21:44:58",
    "EPOCH_MICROSECONDS": "794720",
    "MEAN_MOTION": "14.51907218",
    "ECCENTRICITY": "0.000626",
    "INCLINATION": "92.0193",
    "RA_OF_ASC_NODE": "13.2949",
    "ARG_OF_PERICENTER": "81.0483",
    "MEAN_ANOMALY": "279.1433",
    "EPHEMERIS_TYPE": "0",
    "ELEMENT_SET_NO": "999",
    "REV_AT_EPOCH": "69959",
    "BSTAR": "0.000051283",
    "MEAN_MOTION_DOT": "0.0000021",
    "MEAN_MOTION_DDOT": "0",
    "FILE": "3938544",
    "TLE_LINE0": "0 CRYOSAT 2",
    "TLE_LINE1": "1 36508U 10013A   23171.90623605  .00000210  00000-0  51283-4 0  9998",
    "TLE_LINE2": "2 36508  92.0193  13.2949 0006260  81.0483 279.1433 14.51907218699599",
    "OBJECT_ID": "2010-013A",
    "OBJECT_NUMBER": "36508",
    "SEMIMAJOR_AXIS": "7097.563",
    "PERIOD": "99.180",
    "APOGEE": "723.871",
    "PERIGEE": "714.985",
    "DECAYED": "0"
  },
  {
    "COMMENT": "GENERATED VIA SPACETRACK.ORG API",
    "ORIGINATOR": "18 SPCS",
    "NORAD_CAT_ID": "36508",
    "OBJECT_NAME": "CRYOSAT 2",
    "OBJECT_TYPE": "PAYLOAD",
    "CLASSIFICATION_TYPE": "U",
    "INTLDES": "10013A",
    "EPOCH": "2023-06-21 14:17:25",
    "EPOCH_MICROSECONDS": "488096",
    "MEAN_MOTION": "14.51907545",
    "ECCENTRICITY": "0.0006245",
    "INCLINATION": "92.0193",
    "RA_OF_ASC_NODE": "13.461",
    "ARG_OF_PERICENTER": "79.5899",
    "MEAN_ANOMALY": "280.6012",
    "EPHEMERIS_TYPE": "0",
    "ELEMENT_SET_NO": "999",
    "REV_AT_EPOCH": "69969",
    "BSTAR": "0.000049036",
    "MEAN_MOTION_DOT": "0.00000201",
    "MEAN_MOTION_DDOT": "0",
    "FILE": "3939133",
    "TLE_LINE0": "0 CRYOSAT 2",
    "TLE_LINE1": "1 36508U 10013A   23172.59543389  .00000201  00000-0  49036-4 0  9997",
    "TLE_LINE2": "2 36508  92.0193  13.4610 0006245  79.5899 280.6012 14.51907545699696",
    "OBJECT_ID": "2010-013A",
    "OBJECT_NUMBER": "36508",
    "SEMIMAJOR_AXIS": "7097.562",
    "PERIOD": "99.180",
    "APOGEE": "723.860",
    "PERIGEE": "714.995",
    "DECAYED": "0"
  },
  {
    "COMMENT": "GENERATED VIA SPACETRACK.ORG API",
    "ORIGINATOR": "18 SPCS",
    "NORAD_CAT_ID": "36508",
    "OBJECT_NAME": "CRYOSAT 2",
    "OBJECT_TYPE": "PAYLOAD",
    "CLASSIFICATION_TYPE": "U",
    "INTLDES": "10013A",
    "EPOCH": "2023-06-21 19:15:09",
    "EPOCH_MICROSECONDS": "496800",
    "MEAN_MOTION": "14.51907582",
    "ECCENTRICITY": "0.0006241",
    "INCLINATION": "92.0193",
    "RA_OF_ASC_NODE": "13.5108",
    "ARG_OF_PERICENTER": "79.1485",
    "MEAN_ANOMALY": "281.0425",
    "EPHEMERIS_TYPE": "0",
    "ELEMENT_SET_NO": "999",
    "REV_AT_EPOCH": "69972",
    "BSTAR": "0.000046262",
    "MEAN_MOTION_DOT": "0.00000189",
    "MEAN_MOTION_DDOT": "0",
    "FILE": "3940263",
    "TLE_LINE0": "0 CRYOSAT 2",
    "TLE_LINE1": "1 36508U 10013A   23172.80219325  .00000189  00000-0  46262-4 0  9994",
    "TLE_LINE2": "2 36508  92.0193  13.5108 0006241  79.1485 281.0425 14.51907582699720",
    "OBJECT_ID": "2010-013A",
    "OBJECT_NUMBER": "36508",
    "SEMIMAJOR_AXIS": "7097.562",
    "PERIOD": "99.180",
    "APOGEE": "723.857",
    "PERIGEE": "714.997",
    "DECAYED": "0"
  },
  {
    "COMMENT": "GENERATED VIA SPACETRACK.ORG API",
    "ORIGINATOR": "18 SPCS",
    "NORAD_CAT_ID": "36508",
    "OBJECT_NAME": "CRYOSAT 2",
    "OBJECT_TYPE": "PAYLOAD",
    "CLASSIFICATION_TYPE": "U",
    "INTLDES": "10013A",
    "EPOCH": "2023-06-22 03:31:22",
    "EPOCH_MICROSECONDS": "836576",
    "MEAN_MOTION": "14.51907792",
    "ECCENTRICITY": "0.0006232",
    "INCLINATION": "92.0193",
    "RA_OF_ASC_NODE": "13.5938",
    "ARG_OF_PERICENTER": "78.4152",
    "MEAN_ANOMALY": "281.7754",
    "EPHEMERIS_TYPE": "0",
    "ELEMENT_SET_NO": "999",
    "REV_AT_EPOCH": "69981",
    "BSTAR": "0.000047942",
    "MEAN_MOTION_DOT": "0.00000196",
    "MEAN_MOTION_DDOT": "0",
    "FILE": "3939644",
    "TLE_LINE0": "0 CRYOSAT 2",
    "TLE_LINE1": "1 36508U 10013A   23173.14679209  .00000196  00000-0  47942-4 0  9997",
    "TLE_LINE2": "2 36508  92.0193  13.5938 0006232  78.4152 281.7754 14.51907792699819",
    "OBJECT_ID": "2010-013A",
    "OBJECT_NUMBER": "36508",
    "SEMIMAJOR_AXIS": "7097.561",
    "PERIOD": "99.180",
    "APOGEE": "723.849",
    "PERIGEE": "715.003",
    "DECAYED": "0"
  }
]